ONEWEB-0156             
1 48052U 21025L   24236.67790199  .00000241  00000+0  62488-3 0  9991
2 48052  87.8870  92.0611 0001738  81.5823 278.5503 13.13468804166612
ONEWEB-0161             
1 48053U 21025M   24236.57474636  .00000061  00000+0  13331-3 0  9999
2 48053  87.8873  92.0906 0001788  87.2467 272.8867 13.13472063166527
ONEWEB-0158             
1 48054U 21025N   24236.84135990  .00000038  00000+0  69085-4 0  9999
2 48054  87.8871  92.0263 0001744  76.9923 283.1401 13.13471217166682
ONEWEB-0157             
1 48055U 21025P   24236.56046366 -.00000277  00000+0 -79222-3 0  9997
2 48055  87.8869  92.0965 0001942  83.6718 276.4633 13.13469320166589
ONEWEB-0162             
1 48056U 21025Q   24236.82867176  .00000289  00000+0  75526-3 0  9991
2 48056  87.8868  92.0378 0001777  80.7301 279.4029 13.13470456166572
ONEWEB-0155             
1 48057U 21025R   24236.62076543 -.00000208  00000+0 -60457-3 0  9990
2 48057  87.8870  92.0907 0001742  90.5410 269.5919 13.13471804166707
ONEWEB-0149             
1 48058U 21025S   24236.86993175 -.00000140  00000+0 -41939-3 0  9995
2 48058  87.8868  92.0369 0001958  77.5912 282.5436 13.13471411166554
ONEWEB-0148             
1 48059U 21025T   24236.83503199  .00000182  00000+0  46421-3 0  9991
2 48059  87.8874  92.0567 0002371  78.9710 281.1686 13.13468844166663
ONEWEB-0160             
1 48060U 21025U   24236.62235147 -.00000246  00000+0 -70953-3 0  9995
2 48060  87.8874  92.0951 0001245  50.3206 309.8033 13.13468127166584
ONEWEB-0163             
1 48061U 21025V   24236.83660775  .00000153  00000+0  38483-3 0  9995
2 48061  87.8871  92.0429 0001937  88.5956 271.5395 13.13468040166743
ONEWEB-0159             
1 48062U 21025W   24236.59697623  .00000340  00000+0  89496-3 0  9999
2 48062  87.8868  92.0736 0001949  83.7708 276.3643 13.13469316166629
ONEWEB-0164             
1 48063U 21025X   24236.88422001  .00000184  00000+0  46944-3 0  9995
2 48063  87.8869  92.0264 0001631  82.3015 277.8299 13.13471058166653
ONEWEB-0167             
1 48064U 21025Y   24236.60886535  .00000102  00000+0  24534-3 0  9993
2 48064  87.8871  92.0943 0001923  86.6721 273.4628 13.13470101166595
ONEWEB-0166             
1 48065U 21025Z   24237.16352829 -.00000281  00000+0 -80482-3 0  9994
2 48065  87.8866  91.9639 0001905  78.8562 281.2781 13.13470170166746
ONEWEB-0151             
1 48066U 21025AA  24237.16512040 -.00000274  00000+0 -78415-3 0  9993
2 48066  87.8868  91.9787 0001606  84.7518 275.3794 13.13470700166699
ONEWEB-0170             
1 48067U 21025AB  24236.56362897 -.00000297  00000+0 -84806-3 0  9996
2 48067  87.8868  92.1017 0001138  82.8093 277.3166 13.13471210166564
ONEWEB-0168             
1 48068U 21025AC  24236.54934867 -.00000306  00000+0 -87315-3 0  9996
2 48068  87.8872  92.0763 0001792  83.2876 276.8457 13.13468625166571
ONEWEB-0173             
1 48069U 21025AD  24236.61759137 -.00000115  00000+0 -34888-3 0  9995
2 48069  87.8873  92.0727 0001832  97.0825 263.0513 13.13468383166825
ONEWEB-0171             
1 48070U 21025AE  24237.03497123 -.00000157  00000+0 -46385-3 0  9999
2 48070  87.8872  92.0253 0001644  85.9593 274.1723 13.13470549166697
ONEWEB-0172             
1 48071U 21025AF  24237.16670031 -.00000246  00000+0 -70966-3 0  9996
2 48071  87.8871  91.9651 0001680  88.1430 271.9892 13.13470223167605
ONEWEB-0174             
1 48072U 21025AG  24236.84453990 -.00000030  00000+0 -11653-3 0  9993
2 48072  87.8873  92.0439 0001842  79.7119 280.4217 13.13468366166884
ONEWEB-0175             
1 48073U 21025AH  24236.87310533 -.00000114  00000+0 -34679-3 0  9998
2 48073  87.8866  92.0226 0001384  88.5883 271.5405 13.13469815166541
ONEWEB-0177             
1 48074U 21025AJ  24236.88581167  .00000238  00000+0  61659-3 0  9996
2 48074  87.8867  92.0290 0002052  89.7807 270.3557 13.13470970166736
ONEWEB-0178             
1 48075U 21025AK  24236.82722335  .00000326  00000+0  85867-3 0  9990
2 48075  87.8877  92.0634 0001857  86.8526 273.2815 13.13468201166775
ONEWEB-0108             
1 48076U 21025AL  24237.16828745 -.00000485  00000+0 -13620-2 0  9996
2 48076  87.8866  91.9694 0001785  74.4670 285.6656 13.13470278166756
ONEWEB-0169             
1 48077U 21025AM  24237.12385815  .00000364  00000+0  96098-3 0  9994
2 48077  87.8868  91.9902 0001819  74.8259 285.3071 13.13471196166631
ONEWEB-0176             
1 48210U 21031A   24237.03037672  .00000097  00000+0  22694-3 0  9999
2 48210  87.8922  61.3954 0001702  89.4743 270.6581 13.14503583162614
ONEWEB-0184             
1 48211U 21031B   24237.07953205 -.00000253  00000+0 -71820-3 0  9994
2 48211  87.8921  61.3665 0001337 125.1413 234.9842 13.14503473161305
ONEWEB-0179             
1 48212U 21031C   24237.04940568  .00000202  00000+0  51032-3 0  9995
2 48212  87.8924  61.3784 0001816  90.3873 269.7464 13.14503736161348
ONEWEB-0180             
1 48213U 21031D   24236.77823970 -.00000081  00000+0 -25304-3 0  9992
2 48213  87.8920  61.4286 0001902  92.3185 267.8163 13.14506246161194
ONEWEB-0218             
1 48214U 21031E   24237.02878466  .00000083  00000+0  18906-3 0  9992
2 48214  87.8920  61.3802 0001711 126.6308 233.4980 13.14504365161381
ONEWEB-0209             
1 48215U 21031F   24236.56097594 -.00000010  00000+0 -60752-4 0  9995
2 48215  87.8922  61.5092 0001932  91.6330 268.5021 13.14505118161324
ONEWEB-0198             
1 48216U 21031G   24236.77347619 -.00000210  00000+0 -60184-3 0  9995
2 48216  87.8924  61.4709 0001804 102.9503 257.1828 13.14500528161449
ONEWEB-0189             
1 48217U 21031H   24237.01451938 -.00000139  00000+0 -41065-3 0  9991
2 48217  87.8922  61.3981 0001904 103.7067 256.4275 13.14503414161236
ONEWEB-0196             
1 48218U 21031J   24237.06843595 -.00000267  00000+0 -75477-3 0  9997
2 48218  87.8928  61.3924 0001591  94.3323 265.7989 13.14502400161231
ONEWEB-0183             
1 48219U 21031K   24237.04305827  .00000222  00000+0  56347-3 0  9991
2 48219  87.8923  61.4134 0001886  87.4477 272.6869 13.14504245161335
ONEWEB-0185             
1 48220U 21031L   24236.53640474 -.00000115  00000+0 -34404-3 0  9999
2 48220  87.8922  61.4860 0001938  87.9821 272.1531 13.14503544161194
ONEWEB-0187             
1 48221U 21031M   24236.50627489  .00000281  00000+0  72299-3 0  9994
2 48221  87.8923  61.5258 0001890  89.2762 270.8584 13.14504381161209
ONEWEB-0192             
1 48222U 21031N   24237.01927190 -.00000075  00000+0 -23641-3 0  9994
2 48222  87.8921  61.4206 0001703  92.8618 267.2707 13.14503489161196
ONEWEB-0219             
1 48223U 21031P   24237.07478604 -.00000236  00000+0 -67150-3 0  9994
2 48223  87.8924  61.3834 0001935  91.1483 268.9868 13.14502763161409
ONEWEB-0202             
1 48224U 21031Q   24237.05574662  .00000148  00000+0  36510-3 0  9990
2 48224  87.8922  61.4058 0001910 116.1474 243.9852 13.14503989161382
ONEWEB-0204             
1 48225U 21031R   24237.01372427 -.00000172  00000+0 -49779-3 0  9992
2 48225  87.8921  61.4261 0001912  78.3555 281.7789 13.14503544161273
ONEWEB-0205             
1 48226U 21031S   24237.06525710 -.00000058  00000+0 -19090-3 0  9999
2 48226  87.8922  61.3871 0001906  92.5014 267.6334 13.14501607161291
ONEWEB-0206             
1 48227U 21031T   24237.03830072  .00000192  00000+0  48212-3 0  9992
2 48227  87.8920  61.3803 0001974  89.0415 271.0941 13.14499560161248
ONEWEB-0182             
1 48228U 21031U   24237.03355259  .00000175  00000+0  43841-3 0  9996
2 48228  87.8923  61.4112 0001821  83.6879 276.4458 13.14503264161453
ONEWEB-0186             
1 48229U 21031V   24237.04465081  .00000240  00000+0  61411-3 0  9999
2 48229  87.8923  61.3725 0001721  90.8988 269.2339 13.14503974161404
ONEWEB-0181             
1 48230U 21031W   24237.02244941 -.00000041  00000+0 -14601-3 0  9999
2 48230  87.8922  61.4468 0001734  95.0941 265.0386 13.14502921161250
ONEWEB-0188             
1 48231U 21031X   24236.52768398  .00000005  00000+0 -22309-4 0  9995
2 48231  87.8923  61.5408 0001820  89.4811 270.6527 13.14500427161085
ONEWEB-0220             
1 48232U 21031Y   24237.02403439 -.00000045  00000+0 -15696-3 0  9999
2 48232  87.8917  61.4020 0002088  92.9512 267.1856 13.14502997161419
ONEWEB-0165             
1 48233U 21031Z   24237.05258268  .00000192  00000+0  48207-3 0  9996
2 48233  87.8924  61.4176 0001812  94.0517 266.0820 13.14502636161376
ONEWEB-0199             
1 48234U 21031AA  24237.03671939  .00000227  00000+0  57839-3 0  9999
2 48234  87.8921  61.3892 0001545  86.0177 274.1130 13.14504372161276
ONEWEB-0203             
1 48235U 21031AB  24237.02720430  .00000047  00000+0  93051-4 0  9997
2 48235  87.8921  61.3928 0001286  94.7531 265.3746 13.14503717161287
ONEWEB-0197             
1 48236U 21031AC  24237.07874281 -.00000217  00000+0 -62053-3 0  9995
2 48236  87.8923  61.3914 0001907  79.3397 280.7947 13.14503368161202
ONEWEB-0194             
1 48237U 21031AD  24237.05733461  .00000077  00000+0  17187-3 0  9998
2 48237  87.8926  61.3895 0001466  87.5301 272.5996 13.14503567161372
ONEWEB-0193             
1 48238U 21031AE  24237.07318983 -.00000164  00000+0 -47700-3 0  9992
2 48238  87.8925  61.3941 0001657  92.7205 267.4114 13.14503897161323
ONEWEB-0191             
1 48239U 21031AF  24237.08429259 -.00000213  00000+0 -60785-3 0  9996
2 48239  87.8920  61.3735 0001683  92.4643 267.6680 13.14501401161185
ONEWEB-0195             
1 48240U 21031AG  24237.06130137  .00000002  00000+0 -29451-4 0  9991
2 48240  87.8922  61.3773 0001913 100.9635 259.1710 13.14503312161164
ONEWEB-0201             
1 48241U 21031AH  24236.51737790  .00000167  00000+0  41646-3 0  9999
2 48241  87.8926  61.5228 0001806  92.4935 267.6401 13.14502335161328
ONEWEB-0207             
1 48242U 21031AJ  24237.02958212  .00000090  00000+0  20886-3 0  9999
2 48242  87.8921  61.3854 0001953  85.5983 274.5369 13.14504457161301
